F5338   20.5   0.15 K14C9  76.23012  138.49563  226.73149    2.07895  0.4824408  0.50133618   1.5693387  1 MPO117380   126   4 2002-2007 0.46 M-v 3Eh MPCW       C803 (155338) 2006 MZ1           20070210
F5340   16.2   0.15 K14C9 343.56786  352.52341  260.58574    9.23524  0.4663165  0.32218631   2.1073241  1 MPO280814   128   9 2001-2014 0.51 M-v 38h MPCLINUX   1804 (155340) 2006 SK198         20140109
F5341   18.2   0.15 K14C9 179.59122  277.95923  144.41762   18.52102  0.2415906  0.54875277   1.4775819  1 MPO287648   362   7 1980-2014 0.41 M-v 38h MPCLINUX   1804 (155341) 2006 SA218         20140313
F9368   17.1   0.15 K14C9 319.07558   12.18958  342.36523    3.35288  0.4426487  0.27697826   2.3308031  0 MPO297068   576   9 1979-2014 0.42 M-v 38h MPCLINUX   1804 (159368) 1979 QB            20140520
F9399   16.5   0.15 K14C9   8.72703  353.16677  214.87717   41.96670  0.2140036  0.52239234   1.5268798  1 MPO285039   532   8 1998-2014 0.46 M-v 38h MPCLINUX   1804 (159399) 1998 UL1           20140124
F9402   16.1   0.15 K14C9 140.32645   46.95282  357.40019    7.62619  0.5749978  0.26916872   2.3756712  0 MPO294156  1276   8 1999-2014 0.31 M-h 3Eh MPCLINUX   1804 (159402) 1999 AP10          20140430
F9454   17.9   0.15 K14C9  31.57155  262.93150  139.56650   37.75022  0.2526705  0.58790351   1.4112329  1 MPO306149   163   7 2000-2014 0.45 M-h 3Eh MPCLINUX   1804 (159454) 2000 DJ8           20140711
F9459   16.2   0.15 K14C9   5.49449  185.09341  185.45031   55.99542  0.7964674  0.27517345   2.3409835  2 MPO198813   113   7 2000-2009 0.46 M-v 3Eh MPCALB     5803 (159459) 2000 KB            20090326
F9467   18.1   0.15 K14C9 286.28451  240.25172  138.85428    6.13735  0.2826768  0.40495838   1.8093772  1 MPO294156   139   7 2000-2014 0.55 M-v 38h MPCLINUX   1804 (159467) 2000 QK25          20140430
F9495   17.2   0.15 K14C9 359.80222  352.56151  341.75610    4.07934  0.4849233  0.27408971   2.3471502  1 MPO310233   145   8 1989-2014 0.47 M-v 38h MPCLINUX   1804 (159495) 2000 UV16          20140430
F9504   16.5   0.15 K14C9 284.21840  237.67244  107.74352    9.70111  0.6183947  0.26003339   2.4309907  1 MPO235246   133   7 2000-2012 0.48 M-h 3Eh MPCLINUX   9803 (159504) 2000 WO67          20120226
F9518   17.9   0.15 K14C9 157.97760   59.36103  190.18027   47.51506  0.4443295  0.32298270   2.1038586  1 MPO254157   252   6 2001-2013 0.48 M-v 38h MPCLINUX   1804 (159518) 2001 FF7           20130215
F9533   17.5   0.15 K14C9  48.18735  275.81500   71.68626   12.85197  0.2889041  0.46319651   1.6543442  1 MPO310234   235   9 1997-2014 0.53 M-v 38h MPCLINUX   1804 (159533) 2001 HH31          20140922
F9555   18.6   0.15 K14C9 140.72676  123.44256  214.98150   29.43380  0.2299779  0.47341796   1.6304453  2 MPO120955   133   4 2001-2007 0.50 M-v 38h MPCW       4804 (159555) 2001 SJ276         20070519
F9560   16.9   0.15 K14C9  50.02296  261.56760   42.32257   25.72429  0.4353653  0.29946646   2.2126052  1 MPO310234   222   5 2001-2014 0.56 M-v 38h MPCLINUX   1804 (159560) 2001 TO103         20141005
F9608   16.4   0.15 K14C9 148.60290  208.10348  102.71592   58.88870  0.3513461  0.45489919   1.6744002  1 MPO310234   172   7 2002-2014 0.50 M-h 3Eh MPCLINUX   1804 (159608) 2002 AC2           20141001
F9609   17.1   0.15 K14C9 129.97545  243.47779  124.28653   40.01803  0.4623558  0.32118711   2.1116923  0 MPO287669   222   6 2002-2014 0.49 M-v 38h MPCLINUX   1804 (159609) 2002 AQ3           20140214
F9635   18.0   0.15 K14C9 334.46726  246.32344  173.44040   16.24098  0.3240279  0.44336048   1.7033271  0 MPO264326   343   7 2002-2013 0.45 M-v 38h MPCLINUX   1804 (159635) 2002 CZ46          20130508
F9677   19.4   0.15 K14C9  35.59799  322.13028  153.33535    6.04800  0.5958226  0.39157503   1.8503735  1 MPO232146   145   6 2001-2012 0.44 M-h 3Eh MPCLINUX   0803 (159677) 2002 HQ11          20120425
F9686   16.3   0.15 K14C9  19.46511  140.91466  244.85200   24.68645  0.6885164  0.40678513   1.8039563  1 MPO306150   372   9 1997-2014 0.41 M-h 3Eh MPCLINUX   1803 (159686) 2002 LB6           20140718
F9699   17.8   0.15 K14C9 162.69772  332.10005  151.34216   16.78772  0.7165041  0.44603880   1.6965017  2 MPO276422   123   6 2002-2013 0.46 M-h 3Eh MPCLINUX   1803 (159699) 2002 PQ142         20131020
F9856   17.9   0.15 K14C9  86.48739  174.33878  143.98194    9.75371  0.4662451  0.31176725   2.1540166  1 MPO121052    86   4 1982-2007 0.48 M-v 38h MPCW       5804 (159856) 2004 JW6           20070415
F9857   15.4   0.15 K14C9 357.79028  139.61620  235.85439   23.03721  0.5922615  0.28906814   2.2653530  0 MPO310235  1227   7 1995-2014 0.37 M-h 3Eh MPCLINUX   9803 (159857) 2004 LJ1           20140831
F9923   16.3   0.15 K14C9 241.99311  234.25079  118.79890    7.52759  0.5253905  0.24624553   2.5209088  0 MPO260165   158  10 1997-2013 0.43 M-v 38h MPCLINUX   1804 (159923) 2004 YJ32          20130407
F9928   18.0   0.15 K14C9 167.82054   95.63177  157.51035   27.75013  0.4194529  0.46322939   1.6542659  0 MPO121075   550   4 1988-2007 0.40 M-v 3Eh MPCW       5803 (159928) 2005 CV69          20070415
F9929   17.4   0.15 K14C9 316.55791   19.40933  222.57423   54.43635  0.4072414  0.38040059   1.8864354  1 MPO190224    78   6 1976-2010 0.46 M-v 38h MPCLINUX   1804 (159929) 2005 UK            20101029
G1989   17.1   0.15 K14C9 237.27227  102.15412  161.24705   26.06093  0.2139438  0.82811577   1.1230748  1 MPO220424   906   4 1978-2010 0.52 M-h 3Eh MPCLINUX   9803 (161989) Cacus              20100611
G1995   17.2   0.15 K14C9  22.81548  220.68227   81.23485   25.27759  0.4792997  0.28511369   2.2862515  1 MPO310247    92   5 1983-2014 0.58 M-v 38h MPCLINUX   1804 (161995) 1983 LB            20140701
G1998   17.6   0.15 K14C9 139.67428  137.45163  162.18537    8.21640  0.4062747  0.31326588   2.1471414  0 MPO264334   366   5 1988-2013 0.48 M-v 38h MPCLINUX   1804 (161998) 1988 PA            20130512
G1999   19.0   0.15 K14C9  70.77244  181.15332  140.22223    7.38569  0.5148355  0.28018259   2.3129982  1 MPO181590   104   4 1989-2010 0.60 M-v 38h MPCLINUX   0804 (161999) 1989 RC            20100723
G2000   19.3   0.15 K14C9  47.99706   21.41587  346.63584    1.09511  0.4623445  0.45331794   1.6782917  0 MPO122912   327   4 1990-2005 0.53 M-v 3Eh MPCW       C803 (162000) 1990 OS            20050614
G2004   18.2   0.15 K14C9 253.30690  193.57671   61.93657    7.22387  0.6645772  1.17257183   0.8906555  0 MPO310247   687  15 1991-2014 0.62 M-v 3Eh MPCW       1802 (162004) 1991 VE            20141001
G2011   16.6   0.15 K14C9 146.80416  343.06724   66.74003    4.55940  0.5990729  0.20733972   2.8271425  0 MPO264334   149   7 1993-2013 0.50 M-v 38h MPCLINUX   1804 (162011) Konnohmaru         20130505
G2015   19.2   0.15 K14C9   0.80326  349.73495  175.25114   23.75262  0.2840742  0.99586089   0.9931243  3 MPO122918   143   9 1994-2003 0.68 M-v 3Eh MPCW       4802 (162015) 1994 TF2           20031019
G2038   16.6   0.15 K14C9   7.12733  351.51153  309.31521   17.23557  0.2768625  0.49304171   1.5868904  2 MPO310247   669  10 1996-2014 0.53 M-v 38h MPCLINUX   1804 (162038) 1996 DH            20140326
G2039   19.5   0.15 K14C9 219.10281  280.12882   52.93428    5.27975  0.6608506  0.40749309   1.8018662  0 MPO148801   345   3 1996-2008 0.66 M-v 3Eh MPCADO     C803 (162039) 1996 JG            20081120
G2058   17.8   0.15 K14C9  27.10597   59.67389  305.64076    4.89183  0.5517001  0.27028411   2.3691308  0 MPO302762   623   5 1992-2014 0.40 M-h 3Eh MPCLINUX   1804 (162058) 1997 AE12          20140727
G2063   19.0   0.15 K14C9 209.48852  198.59557  175.15084   13.01718  0.6664596  0.73667420   1.2141875  3 MPO260173    81  10 1997-2013 0.62 M-h 3Eh MPCLINUX   4803 (162063) 1997 EH29          20130407
G2080   19.8   0.15 K14C9 105.07341  356.83154  344.37984   16.20882  0.3581991  1.16070808   0.8967142  3 MPO291365   122   5 1981-2014 0.55 M-h 3Eh MPCLINUX   4802 (162080) 1998 DG16          20140329
G2082   18.9   0.15 K14C9 198.09424  148.49010  213.57861   20.04616  0.1872402  0.70842262   1.2462575  1 MPO248248   250   5 1998-2012 0.55 M-h 3Eh MPCLINUX   8804 (162082) 1998 HL1           20121209
G2116   19.4   0.15 K14C9   9.82401  331.32082  114.28658    7.10096  0.5578116  0.37160660   1.9160806  1 MPO310247    47   4 1998-2014 0.65 M-h 3Eh MPCLINUX   C803 (162116) 1998 SA15          20140921
G2117   19.1   0.15 K14C9 107.09504   35.83122  183.95084   26.79562  0.3448352  1.09456446   0.9324849  3 MPO170010   318   5 1998-2008 0.53 M-v 3Eh MPCALI     4802 (162117) 1998 SD15          20081103
G2120   20.5   0.15 K14C9  32.58603  278.71662  217.97077    2.12997  0.5709917  0.86857566   1.0879216  3 MPO224102   121   4 1998-2007 0.57 M-h 3Eh MPCLINUX   C803 (162120) 1998 SH36          20070904
G2142   18.6   0.15 K14C9  63.52537  170.70230   46.40195   21.80346  0.3179694  1.20294014   0.8756019  3 MPO245203   320   7 1998-2012 0.62 M-h 3Eh MPCLINUX   4802 (162142) 1998 VR            20121118
G2149   17.4   0.15 K14C9  69.87982  245.61156  256.67966   11.93938  0.3960532  0.38414428   1.8741592  1 MPO276431   310   7 1998-2013 0.54 M-v 38h MPCLINUX   1804 (162149) 1998 YQ11          20131107
G2157   19.7   0.15 K14C9 310.89096  279.25597  132.02763   15.26452  0.3515578  0.66720118   1.2970743  1 MPO291366   108   5 1999-2014 0.64 M-h 3Eh MPCLINUX   0803 (162157) 1999 CV8           20140406
G2161   17.3   0.15 K14C9   8.99970  103.06695  149.75951   43.14183  0.4430636  0.32034767   2.1153797  1 MPO280859   162   5 1999-2014 0.57 M-v 38h MPCLINUX   1804 (162161) 1999 DK3           20140104
G2162   20.0   0.15 K14C9 310.60318   29.86085  157.61975   10.84089  0.1948335  0.74432645   1.2058513  1 MPO205986   162   4 1999-2011 0.62 M-h 3Eh MPCLINUX   8803 (162162) 1999 DB7           20110824
G2168   17.0   0.15 K14C9  87.85484   78.84892  206.27105    4.06223  0.5874954  0.21010997   2.8022375  0 MPO264335   255   5 1999-2013 0.64 M-v 38h MPCLINUX   1804 (162168) 1999 GT6           20130610
